[{"OBJECT_NAME":"STARLINK-31622","OBJECT_ID":"2024-068B","EPOCH":"2026-03-09T21:47:27.244608","MEAN_MOTION":15.2756356,"ECCENTRICITY":7.269e-5,"INCLINATION":42.9976,"RA_OF_ASC_NODE":33.4981,"ARG_OF_PERICENTER":257.1263,"MEAN_ANOMALY":102.9507,"EPHEMERIS_TYPE":0,"CLASSIFICATION_TYPE":"U","NORAD_CAT_ID":59456,"ELEMENT_SET_NO":999,"REV_AT_EPOCH":10855,"BSTAR":0.00029825158,"MEAN_MOTION_DOT":7.95e-5,"MEAN_MOTION_DDOT":0},{"OBJECT_NAME":"REAL","OBJECT_ID":"2025-154G","EPOCH":"2026-03-09T17:20:09.670560","MEAN_MOTION":15.28408058,"ECCENTRICITY":0.00018528,"INCLINATION":97.4133,"RA_OF_ASC_NODE":137.2581,"ARG_OF_PERICENTER":118.5876,"MEAN_ANOMALY":241.555,"EPHEMERIS_TYPE":0,"CLASSIFICATION_TYPE":"U","NORAD_CAT_ID":64875,"ELEMENT_SET_NO":999,"REV_AT_EPOCH":3483,"BSTAR":0.0008290401,"MEAN_MOTION_DOT":0.00022901,"MEAN_MOTION_DDOT":0}]
